{"type":"FeatureCollection", "features": [
{"type":"Feature","geometry":{"type":"MultiPolygon","coordinates":[[[[37.390018,55.912844],[37.394262,55.914488],[37.395781,55.915498],[37.398713,55.916618],[37.394936,55.919329],[37.393851,55.921136],[37.394331,55.922658],[37.396846,55.92617],[37.408413,55.924135],[37.410625,55.925248],[37.410269,55.927206],[37.407747,55.92903],[37.410162,55.930443],[37.410168,55.931913],[37.407669,55.934691],[37.406664,55.939028],[37.408423,55.941133],[37.408579,55.942771],[37.410367,55.945258],[37.415558,55.945761],[37.416802,55.94674],[37.4193,55.946697],[37.421137,55.947482],[37.420708,55.949716],[37.422458,55.951315],[37.419855,55.951581],[37.420458,55.952516],[37.41924,55.953278],[37.417143,55.953331],[37.416418,55.954323],[37.413763,55.954527],[37.411022,55.953194],[37.409723,55.954205],[37.408147,55.953911],[37.4079,55.951706],[37.405172,55.950898],[37.396587,55.949379],[37.394189,55.94859],[37.392081,55.949123],[37.391614,55.95003],[37.392985,55.951288],[37.392792,55.952273],[37.39026,55.95199],[37.389219,55.953084],[37.387621,55.95333],[37.38332,55.952955],[37.38371,55.951513],[37.380939,55.95096],[37.377202,55.952478],[37.375255,55.953593],[37.376231,55.955443],[37.371972,55.956138],[37.359447,55.955971],[37.358211,55.955642],[37.357997,55.953332],[37.356001,55.953544],[37.354762,55.951712],[37.353493,55.951126],[37.350388,55.952475],[37.348819,55.951895],[37.346332,55.953802],[37.347327,55.955326],[37.350195,55.95692],[37.342991,55.956428],[37.339468,55.954828],[37.335026,55.953589],[37.336442,55.950715],[37.338519,55.948859],[37.338574,55.948008],[37.340528,55.946266],[37.341698,55.94675],[37.347907,55.943229],[37.347453,55.942943],[37.351009,55.940787],[37.350395,55.940476],[37.354099,55.938907],[37.351452,55.937224],[37.349548,55.93663],[37.343268,55.938958],[37.331321,55.93387],[37.333446,55.933589],[37.336687,55.932665],[37.339834,55.930731],[37.343527,55.926641],[37.343707,55.924183],[37.349223,55.926039],[37.349702,55.926776],[37.356463,55.929954],[37.361035,55.928055],[37.37564,55.921708],[37.376966,55.920705],[37.371735,55.919643],[37.368849,55.917956],[37.369671,55.917513],[37.366026,55.915381],[37.36584,55.91417],[37.368207,55.910226],[37.369861,55.908196],[37.376795,55.911244],[37.37835,55.91149],[37.382316,55.911348],[37.386724,55.911657],[37.390018,55.912844]]],[[[37.436484,55.879579],[37.437785,55.878565],[37.438724,55.876534],[37.44262,55.874411],[37.45145,55.870265],[37.453974,55.870116],[37.454603,55.86849],[37.455091,55.864689],[37.456601,55.860859],[37.457707,55.859837],[37.460847,55.853004],[37.461326,55.851045],[37.462894,55.850076],[37.463493,55.8482],[37.46538,55.846234],[37.468068,55.844678],[37.468845,55.843538],[37.472268,55.841775],[37.472587,55.840354],[37.471678,55.837786],[37.474224,55.835967],[37.478983,55.831554],[37.478324,55.830471],[37.474419,55.829829],[37.4781,55.826671],[37.480385,55.827023],[37.485603,55.826517],[37.488125,55.826542],[37.491075,55.827272],[37.493366,55.824478],[37.49072,55.823096],[37.488971,55.821682],[37.48753,55.819869],[37.486701,55.817428],[37.487028,55.813952],[37.48766,55.812439],[37.490856,55.808475],[37.501479,55.79623],[37.502854,55.794349],[37.503545,55.792422],[37.506235,55.78031],[37.507025,55.777809],[37.50875,55.775386],[37.521944,55.761509],[37.524285,55.759846],[37.532202,55.763416],[37.534171,55.76515],[37.536061,55.766104],[37.536633,55.769065],[37.538963,55.771129],[37.541863,55.772406],[37.544434,55.772989],[37.549606,55.773218],[37.57108,55.775426],[37.575233,55.775521],[37.5781,55.776148],[37.581096,55.777432],[37.584793,55.779866],[37.585444,55.781015],[37.586841,55.785239],[37.588633,55.792057],[37.5878,55.792637],[37.585005,55.79437],[37.584318,55.795323],[37.583507,55.801022],[37.58234,55.805521],[37.580652,55.808287],[37.58473,55.808682],[37.579607,55.811478],[37.578681,55.813139],[37.577536,55.817125],[37.574553,55.821116],[37.573948,55.822797],[37.573576,55.830584],[37.573869,55.832397],[37.574677,55.833631],[37.5774,55.835902],[37.578641,55.837907],[37.578673,55.839444],[37.577707,55.841441],[37.575262,55.844223],[37.573309,55.84984],[37.572643,55.854158],[37.57415,55.858602],[37.574681,55.861138],[37.574328,55.863002],[37.568467,55.876988],[37.568162,55.878282],[37.567056,55.890163],[37.565897,55.891934],[37.564058,55.893273],[37.559043,55.895234],[37.544119,55.900666],[37.541665,55.901731],[37.538693,55.903999],[37.536321,55.907567],[37.527938,55.906015],[37.524452,55.904917],[37.517647,55.901995],[37.507216,55.897297],[37.496254,55.89248],[37.494815,55.892807],[37.49286,55.890982],[37.485935,55.888399],[37.484749,55.88893],[37.48264,55.888633],[37.479938,55.887317],[37.475935,55.885865],[37.467317,55.883793],[37.462832,55.883217],[37.455565,55.883203],[37.448729,55.882774],[37.444574,55.883042],[37.442419,55.884165],[37.441454,55.881473],[37.440475,55.880822],[37.436484,55.879579]]]]},"properties":{"ref":"САО","name":"Северный административный округ"}},
{"type":"Feature","geometry":{"type":"MultiPolygon","coordinates":[[[[37.309339,55.795974],[37.311677,55.796395],[37.312662,55.795691],[37.315274,55.79689],[37.316738,55.795791],[37.319386,55.796638],[37.320947,55.797852],[37.323151,55.79703],[37.321311,55.796129],[37.316959,55.794752],[37.314389,55.793686],[37.316043,55.792666],[37.311533,55.792588],[37.310059,55.792087],[37.312487,55.79098],[37.314842,55.788763],[37.31288,55.78779],[37.310606,55.784464],[37.311552,55.78415],[37.311843,55.780165],[37.313146,55.779751],[37.312827,55.786385],[37.322235,55.783359],[37.328312,55.781108],[37.327041,55.779534],[37.325136,55.779049],[37.322415,55.776945],[37.315302,55.774603],[37.310852,55.775436],[37.309812,55.771972],[37.308494,55.770591],[37.312757,55.769081],[37.318937,55.769507],[37.320702,55.766821],[37.328549,55.767294],[37.332248,55.767984],[37.331959,55.771375],[37.332302,55.771934],[37.336654,55.77118],[37.338284,55.771291],[37.340334,55.770404],[37.338344,55.769277],[37.344497,55.768598],[37.344515,55.769757],[37.347067,55.769551],[37.350631,55.772879],[37.35244,55.773762],[37.352232,55.778027],[37.360378,55.783001],[37.359489,55.783967],[37.361635,55.785058],[37.37051,55.78803],[37.36801,55.789921],[37.357817,55.792568],[37.353109,55.794368],[37.348679,55.796421],[37.352094,55.797147],[37.353894,55.798865],[37.35754,55.800013],[37.359488,55.801255],[37.358277,55.803266],[37.349454,55.806478],[37.347848,55.806649],[37.342776,55.805111],[37.336104,55.802066],[37.334999,55.801097],[37.334486,55.799611],[37.325151,55.80055],[37.32179,55.800752],[37.319381,55.800479],[37.316368,55.799396],[37.31477,55.799257],[37.314306,55.798133],[37.310296,55.797676],[37.309112,55.797126],[37.309339,55.795974]]],[[[37.029118,55.733964],[37.021967,55.734914],[37.022917,55.736532],[37.024272,55.740883],[37.023843,55.74293],[37.020235,55.745001],[37.016333,55.74626],[37.01148,55.746542],[37.006482,55.745229],[37.003576,55.743417],[37.001373,55.741657],[36.999276,55.742275],[36.999381,55.743493],[37.000656,55.743675],[37.000954,55.744991],[37.003018,55.74554],[37.007939,55.74775],[37.006034,55.749596],[37.004581,55.748567],[37.001291,55.748337],[36.993349,55.746954],[36.99205,55.744709],[36.988273,55.744932],[36.986177,55.744512],[36.985008,55.745484],[36.987894,55.747089],[36.991117,55.748432],[36.988847,55.748614],[36.984542,55.75026],[36.987308,55.751787],[36.986711,55.752878],[36.986956,55.754664],[36.982714,55.757645],[36.983642,55.758684],[36.978755,55.760487],[36.975743,55.758375],[36.974935,55.757214],[36.980792,55.75591],[36.979783,55.75378],[36.977248,55.751168],[36.971834,55.752191],[36.97104,55.7515],[36.97039,55.749543],[36.968277,55.748792],[36.966959,55.747458],[36.964415,55.747677],[36.958195,55.751205],[36.956371,55.753849],[36.957674,55.755679],[36.957027,55.757255],[36.95816,55.757476],[36.959359,55.755276],[36.970659,55.75575],[36.971808,55.757945],[36.970428,55.758427],[36.968056,55.760037],[36.933219,55.754407],[36.93292,55.752637],[36.931915,55.752601],[36.928504,55.751175],[36.921019,55.74658],[36.915983,55.746672],[36.908079,55.748752],[36.907791,55.747319],[36.905876,55.746846],[36.905222,55.745614],[36.902874,55.744912],[36.899747,55.745367],[36.898583,55.741806],[36.900055,55.738378],[36.900555,55.735164],[36.899728,55.73376],[36.901563,55.732409],[36.904074,55.732151],[36.909303,55.732092],[36.914195,55.732839],[36.917755,55.732078],[36.917711,55.733441],[36.920871,55.732897],[36.923712,55.736815],[36.916238,55.736902],[36.910926,55.736202],[36.910388,55.736394],[36.910149,55.736663],[36.91015,55.737047],[36.910172,55.738688],[36.906772,55.738602],[36.904767,55.741327],[36.907812,55.741426],[36.909444,55.739094],[36.910617,55.738459],[36.910196,55.736859],[36.910611,55.736344],[36.911185,55.736272],[36.916204,55.736954],[36.924022,55.736889],[36.933186,55.742607],[36.934623,55.744643],[36.937655,55.753919],[36.93937,55.75376],[36.943632,55.754661],[36.943811,55.75365],[36.94566,55.751228],[36.948061,55.751835],[36.948438,55.75004],[36.944602,55.748226],[36.945383,55.74555],[36.943213,55.743399],[36.942623,55.742083],[36.941123,55.742322],[36.940881,55.739079],[36.939692,55.738861],[36.936007,55.739559],[36.935228,55.737143],[36.946031,55.736758],[36.946866,55.735852],[36.947672,55.731761],[36.961998,55.732753],[36.963542,55.734985],[36.96384,55.73616],[36.971921,55.738088],[36.976391,55.738422],[36.974321,55.741106],[36.977584,55.742156],[36.980686,55.739583],[36.981382,55.738666],[36.983238,55.738794],[36.990567,55.739916],[36.989143,55.741452],[36.990466,55.741847],[36.992794,55.741416],[36.994093,55.740582],[36.99252,55.739848],[36.988109,55.739356],[36.983953,55.73853],[36.985608,55.737032],[36.989557,55.734738],[36.99088,55.734624],[36.991808,55.735922],[36.994382,55.738018],[37.002545,55.73984],[37.005686,55.739656],[37.005114,55.738015],[37.003171,55.735171],[37.002343,55.735131],[36.999356,55.738356],[36.995431,55.735919],[36.990856,55.733462],[36.993554,55.731561],[36.984975,55.727334],[36.983916,55.72955],[36.980665,55.732113],[36.980713,55.73318],[36.979722,55.734756],[36.977672,55.735558],[36.973843,55.736257],[36.97063,55.736365],[36.967186,55.736024],[36.965252,55.735449],[36.96327,55.733716],[36.962086,55.729929],[36.963395,55.729507],[36.962221,55.727957],[36.963356,55.727746],[36.966897,55.728055],[36.967994,55.727806],[36.972227,55.725785],[36.975161,55.725086],[36.977403,55.723515],[36.981569,55.722545],[36.984648,55.720946],[36.985206,55.721342],[36.990988,55.719093],[36.992873,55.718822],[36.995904,55.718995],[36.997588,55.719667],[36.998983,55.721049],[37.000359,55.72326],[37.006073,55.725324],[37.007058,55.723203],[37.009324,55.722984],[37.008324,55.719819],[37.01197,55.720291],[37.0128,55.718566],[37.011671,55.715865],[37.014759,55.716217],[37.017372,55.715662],[37.016419,55.713389],[37.01484,55.710763],[37.019702,55.710704],[37.022919,55.710107],[37.023436,55.709016],[37.020725,55.708416],[37.020646,55.706919],[37.01593,55.707057],[37.009432,55.707491],[37.011086,55.710404],[37.013024,55.710354],[37.013222,55.712159],[37.011936,55.71465],[37.011024,55.715229],[37.007813,55.71475],[37.006691,55.71583],[37.005058,55.715447],[37.002208,55.713841],[36.999507,55.713447],[36.999105,55.712485],[37.000017,55.711561],[37.003364,55.710749],[37.001942,55.709583],[37.002044,55.708085],[37.000242,55.707885],[36.999412,55.709307],[36.997507,55.711059],[36.997908,55.712477],[36.99401,55.711998],[36.992044,55.71209],[37.00016,55.707391],[37.002922,55.707004],[37.004174,55.705413],[37.017235,55.705367],[37.017412,55.706555],[37.020106,55.706793],[37.026859,55.706621],[37.034435,55.706622],[37.03527,55.707502],[37.029148,55.711818],[37.026644,55.709559],[37.025162,55.710499],[37.027515,55.712329],[37.03384,55.713987],[37.035394,55.711066],[37.037944,55.709174],[37.039969,55.708843],[37.052303,55.709312],[37.05454,55.709757],[37.056608,55.710686],[37.058393,55.712052],[37.059182,55.713402],[37.059639,55.717569],[37.060139,55.718883],[37.061654,55.720374],[37.067903,55.722878],[37.069883,55.721701],[37.078846,55.715417],[37.08121,55.715594],[37.096399,55.715583],[37.096402,55.7163],[37.104118,55.716368],[37.107667,55.715638],[37.11301,55.716103],[37.112087,55.717063],[37.116738,55.71994],[37.118898,55.720823],[37.119484,55.720013],[37.123062,55.721205],[37.119271,55.723824],[37.122985,55.725675],[37.126227,55.726987],[37.127775,55.728082],[37.122858,55.732867],[37.121588,55.733888],[37.122016,55.734861],[37.116922,55.736586],[37.116402,55.737504],[37.111626,55.738008],[37.112068,55.738999],[37.106757,55.741832],[37.096967,55.74379],[37.092491,55.743649],[37.089784,55.741319],[37.085872,55.741638],[37.084162,55.739168],[37.081503,55.736152],[37.079664,55.735738],[37.080733,55.733802],[37.082354,55.732582],[37.084768,55.732006],[37.087181,55.730893],[37.091341,55.730289],[37.094349,55.72872],[37.095768,55.730369],[37.096266,55.73171],[37.099987,55.73175],[37.103283,55.732627],[37.102617,55.734075],[37.105067,55.733919],[37.107665,55.734767],[37.110254,55.733229],[37.112499,55.733217],[37.115884,55.736173],[37.119474,55.734789],[37.120648,55.732789],[37.120316,55.731772],[37.114549,55.727945],[37.111241,55.726713],[37.108195,55.726381],[37.104137,55.72645],[37.101772,55.72562],[37.096985,55.726135],[37.095038,55.728227],[37.093231,55.727867],[37.089721,55.727756],[37.088474,55.72737],[37.085197,55.72802],[37.080993,55.728077],[37.079059,55.728468],[37.075769,55.729851],[37.073778,55.730138],[37.070237,55.729019],[37.069299,55.725985],[37.069164,55.723471],[37.065377,55.72237],[37.064585,55.723191],[37.054814,55.723697],[37.052035,55.72232],[37.048983,55.721983],[37.048826,55.721388],[37.054257,55.720357],[37.05254,55.718353],[37.047144,55.718843],[37.045021,55.71866],[37.04219,55.719443],[37.042659,55.721028],[37.044764,55.720803],[37.046569,55.721258],[37.04768,55.722397],[37.047758,55.723524],[37.046775,55.726823],[37.043381,55.728528],[37.041452,55.730354],[37.038907,55.731632],[37.035929,55.732185],[37.033284,55.731895],[37.029762,55.732212],[37.027251,55.73352],[37.024019,55.732258],[37.023305,55.733109],[37.025741,55.734018],[37.029118,55.733964]]],[[[37.298217,55.797628],[37.302354,55.798634],[37.302923,55.802477],[37.303564,55.803559],[37.298637,55.80345],[37.290502,55.80199],[37.293265,55.798065],[37.293168,55.796397],[37.298217,55.797628]]],[[[37.368885,55.773038],[37.368743,55.772499],[37.366197,55.771723],[37.366527,55.770008],[37.368538,55.768858],[37.368608,55.766941],[37.366901,55.765798],[37.366306,55.764607],[37.367905,55.764136],[37.368489,55.762557],[37.368565,55.756876],[37.368312,55.75013],[37.368948,55.745982],[37.370409,55.742527],[37.374518,55.734325],[37.374181,55.732151],[37.375743,55.731888],[37.379268,55.725019],[37.378454,55.723338],[37.381124,55.721383],[37.38431,55.715166],[37.381352,55.713094],[37.386661,55.711148],[37.389706,55.708123],[37.392477,55.705919],[37.387941,55.70432],[37.388239,55.703233],[37.390484,55.702437],[37.388646,55.700793],[37.392163,55.698423],[37.38983,55.696949],[37.387886,55.698105],[37.385447,55.696969],[37.382014,55.698537],[37.378194,55.696843],[37.377611,55.704255],[37.377572,55.708851],[37.37674,55.710674],[37.375467,55.711498],[37.371895,55.710956],[37.364421,55.708905],[37.366155,55.707004],[37.368782,55.703177],[37.365595,55.700943],[37.353362,55.70045],[37.353114,55.701795],[37.351462,55.702251],[37.351814,55.700166],[37.347376,55.697649],[37.344965,55.698397],[37.344569,55.696905],[37.342846,55.694488],[37.342352,55.692554],[37.343895,55.690726],[37.343855,55.689223],[37.339763,55.688167],[37.33786,55.69015],[37.338691,55.692567],[37.337633,55.693516],[37.330653,55.687073],[37.329428,55.685787],[37.333724,55.684302],[37.33097,55.681553],[37.326871,55.682963],[37.329821,55.685443],[37.329293,55.685653],[37.326228,55.68276],[37.331644,55.681248],[37.333691,55.680425],[37.346086,55.676299],[37.348986,55.678562],[37.354299,55.676321],[37.357485,55.679243],[37.358096,55.679078],[37.3611,55.682098],[37.355072,55.685523],[37.355802,55.687456],[37.357973,55.691739],[37.361096,55.689988],[37.359668,55.689036],[37.362687,55.688776],[37.364321,55.690692],[37.366069,55.690103],[37.367904,55.691728],[37.372858,55.691067],[37.371502,55.69004],[37.374865,55.688936],[37.377199,55.690615],[37.381071,55.692636],[37.382803,55.693222],[37.390196,55.696776],[37.393615,55.694779],[37.39417,55.696191],[37.396864,55.696521],[37.398335,55.697372],[37.400691,55.697891],[37.402162,55.698839],[37.410374,55.692629],[37.412402,55.690419],[37.413855,55.687993],[37.41496,55.685267],[37.414714,55.683683],[37.415448,55.682043],[37.417481,55.680776],[37.410585,55.678048],[37.411291,55.677491],[37.405972,55.674458],[37.404033,55.671043],[37.413074,55.66741],[37.415457,55.664765],[37.40948,55.662964],[37.402165,55.661523],[37.399887,55.661558],[37.397241,55.66104],[37.394133,55.660937],[37.389532,55.66176],[37.386158,55.664576],[37.380066,55.66443],[37.379096,55.662525],[37.378318,55.659828],[37.376991,55.659102],[37.370952,55.659058],[37.369765,55.659519],[37.369605,55.661039],[37.369999,55.667997],[37.369042,55.668919],[37.364617,55.669124],[37.358244,55.666045],[37.358452,55.662576],[37.352888,55.660338],[37.350238,55.661199],[37.350509,55.66241],[37.353582,55.663724],[37.349778,55.665565],[37.348047,55.665829],[37.348491,55.662907],[37.347653,55.662031],[37.34459,55.662426],[37.342148,55.66004],[37.34187,55.658064],[37.341019,55.657135],[37.343057,55.654058],[37.33786,55.652824],[37.335004,55.650918],[37.332845,55.648368],[37.330897,55.647277],[37.332047,55.645938],[37.331703,55.644527],[37.329818,55.639874],[37.33244,55.639548],[37.334406,55.63848],[37.336056,55.635179],[37.33855,55.635488],[37.34212,55.633788],[37.343783,55.632428],[37.356117,55.630576],[37.359871,55.629725],[37.363892,55.627932],[37.368685,55.624894],[37.370954,55.622778],[37.372289,55.620327],[37.373983,55.616056],[37.374229,55.614696],[37.38809,55.618201],[37.402007,55.621813],[37.418492,55.626234],[37.43114,55.629423],[37.44174,55.632182],[37.448574,55.634244],[37.455434,55.637223],[37.455719,55.637049],[37.463721,55.640704],[37.495614,55.655631],[37.501653,55.658525],[37.520094,55.670885],[37.52401,55.673706],[37.514264,55.678286],[37.511662,55.679731],[37.536571,55.693563],[37.559232,55.71028],[37.556873,55.710343],[37.552897,55.710973],[37.548516,55.712263],[37.545942,55.713687],[37.543331,55.715617],[37.541885,55.717595],[37.541081,55.720125],[37.541182,55.722056],[37.541864,55.72404],[37.544903,55.727056],[37.553035,55.729947],[37.559063,55.733069],[37.563633,55.735095],[37.56575,55.736401],[37.568327,55.738553],[37.573891,55.744709],[37.574449,55.746327],[37.574492,55.748864],[37.573033,55.751472],[37.570802,55.752728],[37.567883,55.753356],[37.564021,55.753597],[37.560178,55.753078],[37.554535,55.751436],[37.54355,55.746521],[37.540375,55.745458],[37.53735,55.744777],[37.532404,55.744396],[37.527972,55.744612],[37.525569,55.745337],[37.52205,55.747583],[37.518144,55.753211],[37.516299,55.756833],[37.51393,55.758422],[37.511664,55.759659],[37.505828,55.761784],[37.501064,55.764367],[37.498146,55.765502],[37.489716,55.76796],[37.484511,55.76817],[37.480036,55.767713],[37.478056,55.766692],[37.476388,55.76451],[37.476173,55.761711],[37.476774,55.756906],[37.476173,55.752293],[37.474156,55.748501],[37.471023,55.74611],[37.467376,55.744033],[37.461797,55.741858],[37.455316,55.740602],[37.452527,55.740602],[37.446519,55.741858],[37.442485,55.743574],[37.437378,55.746424],[37.436348,55.747873],[37.437376,55.749686],[37.439222,55.750531],[37.453083,55.753888],[37.457632,55.75582],[37.463426,55.760191],[37.464521,55.762383],[37.464562,55.764307],[37.46399,55.765771],[37.460379,55.769076],[37.455266,55.774177],[37.450643,55.776869],[37.448273,55.777327],[37.445487,55.776877],[37.436218,55.774407],[37.430746,55.774173],[37.425627,55.774523],[37.416949,55.775328],[37.40858,55.775762],[37.401828,55.771798],[37.39826,55.771177],[37.394869,55.771203],[37.386739,55.770927],[37.383403,55.772183],[37.379752,55.772348],[37.378835,55.771677],[37.370865,55.771014],[37.370262,55.773027],[37.368885,55.773038]]],[[[37.385051,55.809307],[37.380728,55.809657],[37.381081,55.810645],[37.377447,55.812688],[37.376431,55.812087],[37.373863,55.812592],[37.371747,55.809242],[37.372947,55.808772],[37.372973,55.80744],[37.372086,55.803393],[37.373801,55.803556],[37.376167,55.805729],[37.378572,55.80568],[37.379123,55.806544],[37.377896,55.807694],[37.379352,55.809172],[37.38062,55.809371],[37.384956,55.809062],[37.385051,55.809307]]]]},"properties":{"ref":"ЗАО","name":"Западный административный округ"}},
{"type":"Feature","geometry":{"type":"Polygon","coordinates":[[[37.384956,55.809062],[37.38625,55.80875],[37.385949,55.807445],[37.386786,55.806952],[37.385954,55.805188],[37.38353,55.801813],[37.374481,55.792364],[37.372767,55.791712],[37.368581,55.791242],[37.36724,55.790382],[37.370312,55.788566],[37.370622,55.787791],[37.369413,55.784845],[37.369072,55.782726],[37.368885,55.773038],[37.370262,55.773027],[37.370865,55.771014],[37.378835,55.771677],[37.379752,55.772348],[37.383403,55.772183],[37.386739,55.770927],[37.394869,55.771203],[37.39826,55.771177],[37.401828,55.771798],[37.40858,55.775762],[37.416949,55.775328],[37.425627,55.774523],[37.430746,55.774173],[37.436218,55.774407],[37.445487,55.776877],[37.448273,55.777327],[37.450643,55.776869],[37.455266,55.774177],[37.460379,55.769076],[37.46399,55.765771],[37.464562,55.764307],[37.464521,55.762383],[37.463426,55.760191],[37.457632,55.75582],[37.453083,55.753888],[37.439222,55.750531],[37.437376,55.749686],[37.436348,55.747873],[37.437378,55.746424],[37.442485,55.743574],[37.446519,55.741858],[37.452527,55.740602],[37.455316,55.740602],[37.461797,55.741858],[37.467376,55.744033],[37.471023,55.74611],[37.474156,55.748501],[37.476173,55.752293],[37.476774,55.756906],[37.476173,55.761711],[37.476388,55.76451],[37.478056,55.766692],[37.480036,55.767713],[37.484511,55.76817],[37.489716,55.76796],[37.498146,55.765502],[37.501064,55.764367],[37.505828,55.761784],[37.511664,55.759659],[37.51393,55.758422],[37.521944,55.761509],[37.50875,55.775386],[37.507025,55.777809],[37.506235,55.78031],[37.503545,55.792422],[37.502854,55.794349],[37.501479,55.79623],[37.490856,55.808475],[37.48766,55.812439],[37.487028,55.813952],[37.486701,55.817428],[37.48753,55.819869],[37.488971,55.821682],[37.49072,55.823096],[37.493366,55.824478],[37.491075,55.827272],[37.488125,55.826542],[37.485603,55.826517],[37.480385,55.827023],[37.4781,55.826671],[37.474419,55.829829],[37.478324,55.830471],[37.478983,55.831554],[37.474224,55.835967],[37.471678,55.837786],[37.472587,55.840354],[37.472268,55.841775],[37.468845,55.843538],[37.468068,55.844678],[37.46538,55.846234],[37.463493,55.8482],[37.462894,55.850076],[37.461326,55.851045],[37.460847,55.853004],[37.457707,55.859837],[37.456601,55.860859],[37.455091,55.864689],[37.454603,55.86849],[37.453974,55.870116],[37.45145,55.870265],[37.44262,55.874411],[37.438724,55.876534],[37.437785,55.878565],[37.436484,55.879579],[37.430951,55.877851],[37.429396,55.877991],[37.426664,55.877464],[37.421155,55.878322],[37.417164,55.87831],[37.415519,55.879189],[37.409421,55.880688],[37.409398,55.884917],[37.405578,55.886235],[37.404224,55.887521],[37.404398,55.891181],[37.399291,55.900755],[37.392854,55.902007],[37.39138,55.902465],[37.389973,55.903831],[37.390018,55.912844],[37.386724,55.911657],[37.382316,55.911348],[37.37835,55.91149],[37.376795,55.911244],[37.369861,55.908196],[37.366284,55.906703],[37.36859,55.905578],[37.370676,55.903631],[37.365981,55.902729],[37.363323,55.901962],[37.361889,55.900868],[37.364799,55.900074],[37.367535,55.898179],[37.367489,55.897141],[37.365611,55.896684],[37.365575,55.894776],[37.367275,55.894267],[37.371519,55.895052],[37.374917,55.894751],[37.377357,55.892708],[37.376615,55.892119],[37.373139,55.891387],[37.373475,55.890074],[37.372522,55.887776],[37.37445,55.887324],[37.374376,55.886406],[37.37133,55.884183],[37.371255,55.883352],[37.372702,55.881694],[37.375847,55.881289],[37.377941,55.880272],[37.379717,55.879974],[37.380942,55.878409],[37.382166,55.877869],[37.394436,55.877243],[37.404035,55.875996],[37.406323,55.874262],[37.411428,55.870958],[37.40508,55.86724],[37.401662,55.86447],[37.39764,55.859974],[37.394693,55.854526],[37.392055,55.85501],[37.390361,55.854165],[37.387936,55.855635],[37.3868,55.855794],[37.385516,55.85451],[37.381808,55.854536],[37.380352,55.853547],[37.376182,55.854507],[37.374819,55.855301],[37.376113,55.85613],[37.376515,55.858177],[37.380009,55.859377],[37.378645,55.860666],[37.378203,55.862067],[37.379698,55.863364],[37.377456,55.864804],[37.378856,55.867876],[37.377158,55.868289],[37.37011,55.867354],[37.365861,55.867983],[37.363497,55.867325],[37.362346,55.86752],[37.357891,55.864265],[37.349819,55.863799],[37.34588,55.862944],[37.346585,55.862236],[37.345194,55.86131],[37.342022,55.860207],[37.340698,55.858133],[37.339601,55.854947],[37.340593,55.852257],[37.340444,55.851538],[37.337512,55.84959],[37.336773,55.848031],[37.334128,55.847728],[37.332101,55.846316],[37.333004,55.845285],[37.342886,55.84484],[37.349018,55.843719],[37.347881,55.841287],[37.346965,55.840514],[37.340656,55.840255],[37.340371,55.839008],[37.344977,55.83652],[37.342387,55.834403],[37.343936,55.833096],[37.348729,55.832217],[37.348567,55.829075],[37.344699,55.82627],[37.349101,55.826576],[37.351589,55.824392],[37.349156,55.822225],[37.352312,55.821285],[37.354606,55.82176],[37.356373,55.82266],[37.354013,55.826399],[37.356883,55.826527],[37.358925,55.822888],[37.362222,55.822199],[37.363538,55.824361],[37.365873,55.826481],[37.368916,55.828024],[37.379938,55.830666],[37.385025,55.830682],[37.393919,55.829862],[37.392255,55.823514],[37.387891,55.809762],[37.385051,55.809307],[37.384956,55.809062]]]},"properties":{"ref":"СЗАО","name":"Северо-Западный административный округ"}},
{"type":"Feature","geometry":{"type":"Polygon","coordinates":[[[37.5878,55.792637],[37.589165,55.792421],[37.59589,55.792226],[37.599296,55.792482],[37.60064,55.787802],[37.60172,55.785169],[37.60468,55.785289],[37.606751,55.784409],[37.612333,55.782552],[37.613235,55.783426],[37.615326,55.783691],[37.616798,55.786824],[37.61631,55.793116],[37.627959,55.792508],[37.632431,55.791863],[37.634638,55.791892],[37.634448,55.794612],[37.635,55.79717],[37.640486,55.794613],[37.646056,55.790937],[37.651542,55.78936],[37.650116,55.792793],[37.650489,55.79876],[37.651284,55.800421],[37.653824,55.803864],[37.658119,55.808361],[37.668077,55.819874],[37.670694,55.824394],[37.67152,55.827363],[37.671575,55.829026],[37.67021,55.83874],[37.672857,55.838353],[37.676317,55.838822],[37.678006,55.839942],[37.678346,55.841816],[37.681389,55.843213],[37.690318,55.848006],[37.692226,55.850307],[37.68997,55.851223],[37.692284,55.852909],[37.686768,55.854513],[37.68786,55.855492],[37.690747,55.856177],[37.692522,55.856133],[37.692774,55.855167],[37.694746,55.853375],[37.693765,55.852073],[37.696823,55.848161],[37.703587,55.848773],[37.705643,55.847945],[37.712098,55.847355],[37.714075,55.846915],[37.717128,55.849057],[37.720169,55.850572],[37.719405,55.851423],[37.721639,55.852924],[37.718017,55.860607],[37.709438,55.860911],[37.709186,55.862956],[37.706813,55.86449],[37.707699,55.865519],[37.715813,55.870154],[37.719672,55.873699],[37.721813,55.873875],[37.724256,55.873008],[37.727927,55.873901],[37.729047,55.874647],[37.73182,55.874945],[37.73101,55.876893],[37.732895,55.878049],[37.734784,55.878405],[37.729702,55.881057],[37.729291,55.882046],[37.731555,55.885619],[37.727524,55.883951],[37.724362,55.883802],[37.721481,55.885038],[37.711206,55.89015],[37.706435,55.892258],[37.703052,55.893412],[37.69872,55.894336],[37.694288,55.894875],[37.676955,55.895462],[37.673153,55.897033],[37.671564,55.896906],[37.669183,55.895678],[37.663293,55.895917],[37.656676,55.896385],[37.647369,55.897285],[37.637353,55.898608],[37.62927,55.899929],[37.619522,55.90192],[37.609253,55.904561],[37.593153,55.908948],[37.590503,55.911292],[37.589876,55.91239],[37.586944,55.910428],[37.583892,55.910958],[37.578601,55.911434],[37.570537,55.911017],[37.555916,55.909283],[37.558947,55.919785],[37.559363,55.920716],[37.561385,55.928059],[37.560956,55.932271],[37.565921,55.933349],[37.566527,55.936474],[37.569555,55.936623],[37.570274,55.937311],[37.570091,55.940927],[37.567541,55.940731],[37.564584,55.941401],[37.562808,55.947668],[37.562464,55.951074],[37.56786,55.950661],[37.579422,55.949468],[37.580038,55.952025],[37.57912,55.953673],[37.580707,55.953989],[37.578405,55.955575],[37.574738,55.956187],[37.57443,55.957772],[37.570539,55.956435],[37.555154,55.951529],[37.555104,55.953535],[37.551658,55.953631],[37.551894,55.951221],[37.548551,55.951158],[37.547006,55.954204],[37.542351,55.954142],[37.53744,55.952843],[37.542096,55.945454],[37.543594,55.94281],[37.538332,55.942743],[37.538136,55.943288],[37.534785,55.942929],[37.530433,55.943502],[37.519235,55.941938],[37.521156,55.937963],[37.528743,55.922967],[37.536321,55.907567],[37.538693,55.903999],[37.541665,55.901731],[37.544119,55.900666],[37.559043,55.895234],[37.564058,55.893273],[37.565897,55.891934],[37.567056,55.890163],[37.568162,55.878282],[37.568467,55.876988],[37.574328,55.863002],[37.574681,55.861138],[37.57415,55.858602],[37.572643,55.854158],[37.573309,55.84984],[37.575262,55.844223],[37.577707,55.841441],[37.578673,55.839444],[37.578641,55.837907],[37.5774,55.835902],[37.574677,55.833631],[37.573869,55.832397],[37.573576,55.830584],[37.573948,55.822797],[37.574553,55.821116],[37.577536,55.817125],[37.578681,55.813139],[37.579607,55.811478],[37.58473,55.808682],[37.580652,55.808287],[37.58234,55.805521],[37.583507,55.801022],[37.584318,55.795323],[37.585005,55.79437],[37.5878,55.792637]]]},"properties":{"ref":"СВАО","name":"Северо-Восточный административный округ"}},
{"type":"Feature","geometry":{"type":"MultiPolygon","coordinates":[[[[37.907012,55.706991],[37.906128,55.706259],[37.907363,55.704623],[37.91147,55.704789],[37.912237,55.702995],[37.913464,55.702062],[37.913437,55.697865],[37.915167,55.697047],[37.918938,55.699425],[37.924743,55.697042],[37.92661,55.698221],[37.939807,55.698015],[37.939756,55.696608],[37.935871,55.696811],[37.928253,55.694999],[37.927583,55.69398],[37.923193,55.689271],[37.922435,55.688808],[37.918603,55.68826],[37.917258,55.686267],[37.913291,55.683317],[37.914267,55.683008],[37.913793,55.681605],[37.918945,55.680519],[37.920472,55.676143],[37.927127,55.675952],[37.948626,55.675502],[37.949651,55.675162],[37.963378,55.673656],[37.963469,55.674425],[37.961356,55.675637],[37.961779,55.677487],[37.96435,55.680053],[37.96338,55.680907],[37.963066,55.682318],[37.963799,55.684518],[37.962905,55.685741],[37.963455,55.687366],[37.961618,55.687796],[37.961238,55.688969],[37.95788,55.689451],[37.960204,55.692774],[37.957579,55.693849],[37.956354,55.692743],[37.95393,55.692726],[37.955612,55.694513],[37.950877,55.696187],[37.948476,55.695128],[37.946231,55.696673],[37.944716,55.697124],[37.945539,55.69809],[37.945237,55.699123],[37.947125,55.700278],[37.949412,55.700007],[37.951699,55.70066],[37.954209,55.702775],[37.956508,55.702207],[37.95822,55.70294],[37.959745,55.704508],[37.957911,55.70594],[37.954194,55.706683],[37.947302,55.708597],[37.949667,55.711341],[37.953098,55.711262],[37.964077,55.709311],[37.966706,55.710499],[37.959859,55.714091],[37.960666,55.714754],[37.965022,55.71544],[37.967428,55.716249],[37.958474,55.717617],[37.955513,55.720222],[37.947475,55.72006],[37.94565,55.720839],[37.945109,55.720872],[37.936587,55.716238],[37.92807,55.716159],[37.926254,55.71515],[37.926115,55.712187],[37.924794,55.711117],[37.921917,55.707961],[37.919245,55.707606],[37.907012,55.706991]]],[[[37.71353,55.77526],[37.70432,55.770629],[37.702519,55.770029],[37.697242,55.766827],[37.692199,55.76949],[37.68904,55.767774],[37.685845,55.763984],[37.685839,55.762045],[37.684159,55.760274],[37.682588,55.759536],[37.679468,55.759058],[37.673912,55.75937],[37.670773,55.758378],[37.670912,55.757428],[37.673047,55.753694],[37.67255,55.752388],[37.670531,55.750749],[37.673106,55.75005],[37.679815,55.748932],[37.684874,55.747308],[37.69234,55.743869],[37.695284,55.74232],[37.69708,55.740791],[37.699487,55.736743],[37.6937,55.729303],[37.692158,55.72954],[37.686898,55.732447],[37.685373,55.732884],[37.685838,55.730113],[37.68406,55.730031],[37.681571,55.728472],[37.678918,55.728265],[37.677734,55.727355],[37.670581,55.725826],[37.667464,55.730864],[37.665811,55.731635],[37.66069,55.730703],[37.663127,55.726758],[37.663676,55.724564],[37.663583,55.719007],[37.663947,55.717417],[37.667811,55.705282],[37.667289,55.700742],[37.670955,55.700501],[37.674486,55.698509],[37.679011,55.698192],[37.68427,55.697422],[37.694784,55.695351],[37.707573,55.693271],[37.712122,55.688457],[37.712379,55.684659],[37.71195,55.68132],[37.704762,55.677363],[37.700341,55.675887],[37.692618,55.673801],[37.689342,55.672702],[37.687403,55.671156],[37.682424,55.670624],[37.678133,55.669051],[37.675043,55.667647],[37.67324,55.665106],[37.672382,55.661983],[37.671522,55.655779],[37.671651,55.654351],[37.674569,55.65176],[37.678045,55.649944],[37.688945,55.645222],[37.694482,55.643284],[37.699417,55.642122],[37.713278,55.639458],[37.729502,55.640893],[37.745381,55.639899],[37.749587,55.640626],[37.766195,55.645446],[37.779799,55.648739],[37.783447,55.648545],[37.785335,55.647335],[37.785507,55.645107],[37.783833,55.642588],[37.784262,55.638325],[37.785035,55.633262],[37.786709,55.630258],[37.789756,55.625752],[37.793561,55.62296],[37.795848,55.624226],[37.800647,55.627694],[37.818117,55.639093],[37.822929,55.639322],[37.824115,55.640585],[37.822657,55.641618],[37.824832,55.643391],[37.832094,55.64805],[37.836061,55.651221],[37.838896,55.655245],[37.840962,55.655559],[37.841599,55.657285],[37.840133,55.658272],[37.840034,55.662107],[37.8396,55.664007],[37.834099,55.679107],[37.832464,55.683038],[37.832767,55.684032],[37.835849,55.68457],[37.843395,55.681731],[37.849694,55.679062],[37.85689,55.675701],[37.858957,55.677212],[37.86134,55.681601],[37.864792,55.68735],[37.864745,55.688264],[37.860005,55.691031],[37.864093,55.693688],[37.858739,55.697366],[37.856167,55.698765],[37.858407,55.700125],[37.858176,55.701254],[37.85234,55.704195],[37.841371,55.707966],[37.804808,55.720267],[37.775897,55.729939],[37.762636,55.736542],[37.759999,55.737247],[37.752766,55.738258],[37.750459,55.7388],[37.746723,55.740368],[37.743967,55.74254],[37.741018,55.744452],[37.737447,55.745756],[37.725325,55.748967],[37.721365,55.750635],[37.718385,55.753419],[37.71766,55.755965],[37.718428,55.758507],[37.720632,55.762465],[37.720873,55.764946],[37.720389,55.766733],[37.717839,55.769589],[37.71353,55.77526]]]]},"properties":{"ref":"ЮВАО","name":"Юго-Восточный административный округ"}},
{"type":"Feature","geometry":{"type":"Polygon","coordinates":[[[37.58214,55.710993],[37.585365,55.708814],[37.588753,55.707122],[37.587342,55.706327],[37.596121,55.696134],[37.599996,55.692733],[37.605101,55.68915],[37.605023,55.685795],[37.606749,55.684356],[37.609911,55.683881],[37.613702,55.684476],[37.61458,55.68269],[37.614694,55.680556],[37.611711,55.678606],[37.611521,55.67752],[37.608955,55.676305],[37.607378,55.674668],[37.606625,55.672868],[37.605631,55.672301],[37.606693,55.671172],[37.60579,55.670559],[37.605907,55.669066],[37.607045,55.668189],[37.611645,55.66608],[37.610689,55.664966],[37.608835,55.665153],[37.607646,55.664083],[37.613572,55.663479],[37.605823,55.657044],[37.605395,55.656419],[37.60567,55.641372],[37.594513,55.641963],[37.589415,55.642579],[37.580388,55.645326],[37.57929,55.642801],[37.580707,55.642333],[37.581491,55.63896],[37.582255,55.638467],[37.581666,55.637204],[37.577406,55.63436],[37.577266,55.632677],[37.585859,55.631169],[37.584351,55.626684],[37.581393,55.624071],[37.582633,55.623245],[37.580112,55.621701],[37.578715,55.622236],[37.576921,55.621963],[37.575056,55.620544],[37.574992,55.619823],[37.578463,55.618756],[37.575934,55.615507],[37.578087,55.614758],[37.574626,55.613228],[37.57571,55.612283],[37.574686,55.608817],[37.573616,55.608361],[37.569916,55.608469],[37.569896,55.607243],[37.571868,55.605989],[37.575762,55.606257],[37.577822,55.604366],[37.581565,55.604343],[37.58177,55.603494],[37.579296,55.601033],[37.576715,55.599287],[37.576663,55.597869],[37.580571,55.597761],[37.580237,55.595813],[37.578974,55.595913],[37.577139,55.591634],[37.576787,55.587867],[37.577479,55.58635],[37.576075,55.584257],[37.573678,55.58221],[37.57294,55.580967],[37.590093,55.576896],[37.59224,55.5754],[37.597196,55.569083],[37.597468,55.566872],[37.602288,55.566373],[37.601097,55.568416],[37.600563,55.570735],[37.598512,55.572187],[37.597805,55.573879],[37.60032,55.575375],[37.649665,55.572479],[37.650979,55.57192],[37.653897,55.572285],[37.663429,55.571659],[37.670724,55.571668],[37.676049,55.572088],[37.680734,55.572918],[37.684567,55.574055],[37.685846,55.574092],[37.691721,55.57295],[37.691364,55.574262],[37.691789,55.576407],[37.692691,55.57716],[37.700929,55.580396],[37.715551,55.585741],[37.726349,55.590067],[37.730252,55.589713],[37.731996,55.590077],[37.732546,55.592134],[37.733529,55.592978],[37.750726,55.600213],[37.757289,55.603425],[37.77591,55.613784],[37.780072,55.61589],[37.784285,55.616846],[37.783705,55.61797],[37.788289,55.620441],[37.793561,55.62296],[37.789756,55.625752],[37.786709,55.630258],[37.785035,55.633262],[37.784262,55.638325],[37.783833,55.642588],[37.785507,55.645107],[37.785335,55.647335],[37.783447,55.648545],[37.779799,55.648739],[37.766195,55.645446],[37.749587,55.640626],[37.745381,55.639899],[37.729502,55.640893],[37.713278,55.639458],[37.699417,55.642122],[37.694482,55.643284],[37.688945,55.645222],[37.678045,55.649944],[37.674569,55.65176],[37.671651,55.654351],[37.671522,55.655779],[37.672382,55.661983],[37.67324,55.665106],[37.675043,55.667647],[37.678133,55.669051],[37.682424,55.670624],[37.687403,55.671156],[37.689342,55.672702],[37.692618,55.673801],[37.700341,55.675887],[37.704762,55.677363],[37.71195,55.68132],[37.712379,55.684659],[37.712122,55.688457],[37.707573,55.693271],[37.694784,55.695351],[37.68427,55.697422],[37.679011,55.698192],[37.674486,55.698509],[37.670955,55.700501],[37.667289,55.700742],[37.667811,55.705282],[37.663947,55.717417],[37.663583,55.719007],[37.663676,55.724564],[37.663127,55.726758],[37.656718,55.726372],[37.654211,55.728821],[37.652286,55.728066],[37.645995,55.729465],[37.644943,55.728077],[37.643742,55.722404],[37.642042,55.722204],[37.640084,55.72288],[37.636671,55.723518],[37.635802,55.72202],[37.633062,55.722565],[37.627893,55.721365],[37.622537,55.720928],[37.615577,55.720083],[37.614169,55.721053],[37.610096,55.721427],[37.609347,55.719521],[37.60031,55.721301],[37.598128,55.719847],[37.596855,55.72013],[37.594084,55.718325],[37.592565,55.719146],[37.590795,55.717873],[37.592671,55.716871],[37.587938,55.713953],[37.588336,55.713096],[37.585594,55.711091],[37.58214,55.710993]]]},"properties":{"ref":"ЮАО","name":"Южный административный округ"}},
{"type":"Feature","geometry":{"type":"Polygon","coordinates":[[[37.578446,55.52168],[37.579937,55.526238],[37.582212,55.53164],[37.583915,55.537199],[37.583317,55.537862],[37.585445,55.545342],[37.585933,55.546262],[37.589454,55.557683],[37.592592,55.559847],[37.595528,55.561483],[37.600926,55.563325],[37.603577,55.564592],[37.602288,55.566373],[37.597468,55.566872],[37.597196,55.569083],[37.59224,55.5754],[37.590093,55.576896],[37.57294,55.580967],[37.573678,55.58221],[37.576075,55.584257],[37.577479,55.58635],[37.576787,55.587867],[37.577139,55.591634],[37.578974,55.595913],[37.580237,55.595813],[37.580571,55.597761],[37.576663,55.597869],[37.576715,55.599287],[37.579296,55.601033],[37.58177,55.603494],[37.581565,55.604343],[37.577822,55.604366],[37.575762,55.606257],[37.571868,55.605989],[37.569896,55.607243],[37.569916,55.608469],[37.573616,55.608361],[37.574686,55.608817],[37.57571,55.612283],[37.574626,55.613228],[37.578087,55.614758],[37.575934,55.615507],[37.578463,55.618756],[37.574992,55.619823],[37.575056,55.620544],[37.576921,55.621963],[37.578715,55.622236],[37.580112,55.621701],[37.582633,55.623245],[37.581393,55.624071],[37.584351,55.626684],[37.585859,55.631169],[37.577266,55.632677],[37.577406,55.63436],[37.581666,55.637204],[37.582255,55.638467],[37.581491,55.63896],[37.580707,55.642333],[37.57929,55.642801],[37.580388,55.645326],[37.589415,55.642579],[37.594513,55.641963],[37.60567,55.641372],[37.605395,55.656419],[37.605823,55.657044],[37.613572,55.663479],[37.607646,55.664083],[37.608835,55.665153],[37.610689,55.664966],[37.611645,55.66608],[37.607045,55.668189],[37.605907,55.669066],[37.60579,55.670559],[37.606693,55.671172],[37.605631,55.672301],[37.606625,55.672868],[37.607378,55.674668],[37.608955,55.676305],[37.611521,55.67752],[37.611711,55.678606],[37.614694,55.680556],[37.61458,55.68269],[37.613702,55.684476],[37.609911,55.683881],[37.606749,55.684356],[37.605023,55.685795],[37.605101,55.68915],[37.599996,55.692733],[37.596121,55.696134],[37.587342,55.706327],[37.588753,55.707122],[37.585365,55.708814],[37.58214,55.710993],[37.577608,55.714206],[37.574928,55.713118],[37.56961,55.711617],[37.565401,55.710757],[37.559232,55.71028],[37.536571,55.693563],[37.511662,55.679731],[37.514264,55.678286],[37.52401,55.673706],[37.520094,55.670885],[37.501653,55.658525],[37.495614,55.655631],[37.463721,55.640704],[37.455719,55.637049],[37.458153,55.637376],[37.460782,55.637064],[37.464667,55.633757],[37.465974,55.633139],[37.467492,55.631362],[37.481533,55.619308],[37.488895,55.613276],[37.48912,55.610722],[37.487842,55.60839],[37.490946,55.610174],[37.492747,55.608772],[37.494098,55.608574],[37.502183,55.601608],[37.506553,55.598249],[37.511879,55.595596],[37.51809,55.593648],[37.526287,55.59162],[37.528802,55.58947],[37.530424,55.590696],[37.547266,55.586663],[37.545671,55.585583],[37.546232,55.584129],[37.549081,55.582988],[37.549627,55.581436],[37.551024,55.580279],[37.545742,55.578357],[37.542933,55.578436],[37.541023,55.579232],[37.538651,55.57956],[37.536846,55.577289],[37.539296,55.57672],[37.539947,55.576043],[37.539542,55.573263],[37.536911,55.573152],[37.540686,55.571127],[37.543679,55.570753],[37.546116,55.569939],[37.548878,55.569938],[37.547885,55.568923],[37.553495,55.567625],[37.553449,55.564923],[37.552507,55.563652],[37.550354,55.562929],[37.552012,55.561846],[37.554799,55.561478],[37.552969,55.556227],[37.552147,55.554869],[37.549466,55.554131],[37.548823,55.552626],[37.544878,55.55202],[37.536508,55.553672],[37.529188,55.555246],[37.528579,55.554865],[37.518187,55.550323],[37.514496,55.548505],[37.511115,55.544986],[37.507768,55.542945],[37.493449,55.539646],[37.491066,55.539532],[37.486175,55.539793],[37.475517,55.537295],[37.475709,55.535387],[37.472681,55.534911],[37.47019,55.534052],[37.47096,55.529851],[37.47415,55.527348],[37.477389,55.526156],[37.480136,55.526206],[37.482939,55.527159],[37.483115,55.528605],[37.486434,55.529786],[37.490295,55.529331],[37.494018,55.528441],[37.495001,55.527607],[37.499169,55.526755],[37.50192,55.527684],[37.502282,55.527008],[37.504496,55.52641],[37.506845,55.527086],[37.510454,55.526482],[37.513256,55.526396],[37.519218,55.525466],[37.520193,55.523902],[37.520124,55.522484],[37.52281,55.521634],[37.527498,55.521193],[37.529579,55.520545],[37.532651,55.51876],[37.535123,55.517962],[37.534419,55.520075],[37.534544,55.522819],[37.536031,55.525322],[37.537967,55.526939],[37.540296,55.528168],[37.543658,55.529362],[37.549271,55.530078],[37.552483,55.529955],[37.556466,55.529187],[37.55938,55.528142],[37.562324,55.526277],[37.564203,55.524045],[37.56536,55.520437],[37.566875,55.520291],[37.566179,55.517081],[37.567692,55.516684],[37.577127,55.517203],[37.578446,55.52168]]]},"properties":{"ref":"ЮЗАО","name":"Юго-Западный административный округ"}},
{"type":"Feature","geometry":{"type":"MultiPolygon","coordinates":[[[[37.885164,55.820624],[37.880538,55.819514],[37.878339,55.820653],[37.873798,55.820004],[37.872216,55.822539],[37.868716,55.821499],[37.860012,55.819398],[37.85811,55.818789],[37.857321,55.817911],[37.852883,55.816721],[37.845327,55.813562],[37.849809,55.810466],[37.848872,55.809423],[37.850237,55.808557],[37.852185,55.80896],[37.856011,55.806588],[37.85637,55.806041],[37.860687,55.807541],[37.861697,55.80869],[37.863265,55.807421],[37.865743,55.804208],[37.866587,55.804211],[37.871199,55.806329],[37.870081,55.807761],[37.873583,55.808696],[37.874128,55.810694],[37.878148,55.811429],[37.879642,55.813267],[37.879825,55.814205],[37.884129,55.816661],[37.886874,55.816532],[37.889296,55.815176],[37.891397,55.815122],[37.894541,55.81394],[37.898549,55.814387],[37.899311,55.816291],[37.897824,55.817922],[37.889094,55.819423],[37.887908,55.82079],[37.885164,55.820624]]],[[[37.870452,55.823206],[37.873097,55.823794],[37.876002,55.824903],[37.873517,55.825234],[37.86849,55.823927],[37.870452,55.823206]]],[[[37.795319,56.009024],[37.791224,56.007285],[37.79315,56.005543],[37.796838,56.004761],[37.799432,56.006153],[37.798144,56.007443],[37.7989,56.008244],[37.797975,56.009552],[37.795319,56.009024]]],[[[37.791,56.002657],[37.794094,56.003156],[37.792891,56.003882],[37.791,56.002657]]],[[[37.94565,55.720839],[37.94261,55.722052],[37.940819,55.724338],[37.937683,55.726534],[37.93429,55.727876],[37.930874,55.729755],[37.928523,55.729354],[37.92653,55.730542],[37.923585,55.731226],[37.918039,55.730622],[37.916928,55.728357],[37.915048,55.726984],[37.911834,55.725745],[37.907652,55.724798],[37.903697,55.72533],[37.899318,55.723619],[37.892308,55.723187],[37.890633,55.722309],[37.889851,55.723701],[37.885478,55.724192],[37.884156,55.723396],[37.887129,55.721653],[37.886123,55.719594],[37.882486,55.719003],[37.881005,55.719099],[37.876535,55.720471],[37.876996,55.721617],[37.876108,55.723385],[37.87245,55.723377],[37.870271,55.726586],[37.872167,55.727705],[37.873412,55.729648],[37.871234,55.730839],[37.868892,55.732973],[37.865471,55.733159],[37.864238,55.734717],[37.868489,55.73729],[37.873161,55.738157],[37.878009,55.73787],[37.880033,55.741747],[37.88175,55.742731],[37.885829,55.742613],[37.890085,55.741604],[37.890953,55.742195],[37.890028,55.743628],[37.888246,55.748464],[37.882541,55.74934],[37.863233,55.745573],[37.860543,55.745243],[37.853921,55.74495],[37.847996,55.7445],[37.845707,55.744872],[37.842655,55.746735],[37.842806,55.755024],[37.843498,55.766907],[37.845934,55.768615],[37.843625,55.772557],[37.843401,55.774735],[37.845757,55.777007],[37.850677,55.778567],[37.850004,55.778929],[37.846382,55.778199],[37.843138,55.77924],[37.840514,55.802471],[37.839762,55.811625],[37.843044,55.814365],[37.841991,55.815182],[37.839175,55.816262],[37.838707,55.819106],[37.83737,55.82249],[37.83439,55.825961],[37.830082,55.829153],[37.829744,55.830558],[37.827386,55.830599],[37.818586,55.835295],[37.813896,55.837664],[37.789546,55.850239],[37.777406,55.856442],[37.768498,55.860892],[37.744659,55.873325],[37.734784,55.878405],[37.732895,55.878049],[37.73101,55.876893],[37.73182,55.874945],[37.729047,55.874647],[37.727927,55.873901],[37.724256,55.873008],[37.721813,55.873875],[37.719672,55.873699],[37.715813,55.870154],[37.707699,55.865519],[37.706813,55.86449],[37.709186,55.862956],[37.709438,55.860911],[37.718017,55.860607],[37.721639,55.852924],[37.719405,55.851423],[37.720169,55.850572],[37.717128,55.849057],[37.714075,55.846915],[37.712098,55.847355],[37.705643,55.847945],[37.703587,55.848773],[37.696823,55.848161],[37.693765,55.852073],[37.694746,55.853375],[37.692774,55.855167],[37.692522,55.856133],[37.690747,55.856177],[37.68786,55.855492],[37.686768,55.854513],[37.692284,55.852909],[37.68997,55.851223],[37.692226,55.850307],[37.690318,55.848006],[37.681389,55.843213],[37.678346,55.841816],[37.678006,55.839942],[37.676317,55.838822],[37.672857,55.838353],[37.67021,55.83874],[37.671575,55.829026],[37.67152,55.827363],[37.670694,55.824394],[37.668077,55.819874],[37.658119,55.808361],[37.653824,55.803864],[37.651284,55.800421],[37.650489,55.79876],[37.650116,55.792793],[37.651542,55.78936],[37.651816,55.789098],[37.667289,55.78612],[37.674071,55.784891],[37.685813,55.782575],[37.688267,55.781899],[37.69636,55.782047],[37.701244,55.781851],[37.70525,55.780994],[37.707742,55.780161],[37.710931,55.778001],[37.71353,55.77526],[37.717839,55.769589],[37.720389,55.766733],[37.720873,55.764946],[37.720632,55.762465],[37.718428,55.758507],[37.71766,55.755965],[37.718385,55.753419],[37.721365,55.750635],[37.725325,55.748967],[37.737447,55.745756],[37.741018,55.744452],[37.743967,55.74254],[37.746723,55.740368],[37.750459,55.7388],[37.752766,55.738258],[37.759999,55.737247],[37.762636,55.736542],[37.775897,55.729939],[37.804808,55.720267],[37.841371,55.707966],[37.85234,55.704195],[37.858176,55.701254],[37.860053,55.701137],[37.871532,55.695298],[37.875304,55.697519],[37.879472,55.700268],[37.882306,55.702461],[37.884015,55.703226],[37.886971,55.705215],[37.89337,55.705554],[37.897244,55.706255],[37.905442,55.706993],[37.907012,55.706991],[37.919245,55.707606],[37.921917,55.707961],[37.924794,55.711117],[37.926115,55.712187],[37.926254,55.71515],[37.92807,55.716159],[37.936587,55.716238],[37.945109,55.720872],[37.94565,55.720839]]]]},"properties":{"ref":"ВАО","name":"Восточный административный округ"}},
{"type":"Feature","geometry":{"type":"Polygon","coordinates":[[[37.263014,55.988541],[37.261111,55.987939],[37.25555,55.987261],[37.253792,55.988269],[37.257308,55.990058],[37.260536,55.993153],[37.248444,55.997841],[37.247032,56.000137],[37.245394,56.001069],[37.242301,56.000282],[37.23176,56.004429],[37.214766,56.010953],[37.210665,56.012431],[37.211303,56.012976],[37.207375,56.01715],[37.20325,56.015486],[37.188978,56.021224],[37.186998,56.019994],[37.18491,56.020143],[37.185285,56.018915],[37.181474,56.016716],[37.179119,56.016054],[37.177612,56.015132],[37.171253,56.014626],[37.167744,56.013891],[37.164615,56.014233],[37.16173,56.013221],[37.158863,56.0137],[37.159963,56.014441],[37.159186,56.015336],[37.159754,56.016363],[37.158256,56.017998],[37.155052,56.017639],[37.15052,56.016499],[37.150095,56.017223],[37.145235,56.018092],[37.143349,56.017692],[37.138754,56.018372],[37.136091,56.019108],[37.132659,56.016777],[37.131602,56.016446],[37.139068,56.009595],[37.139417,56.009721],[37.146977,56.003347],[37.151171,55.999549],[37.149199,55.998343],[37.150248,55.997534],[37.152711,55.994242],[37.152744,55.993058],[37.150691,55.993133],[37.148822,55.99212],[37.149583,55.99117],[37.146925,55.991021],[37.144393,55.989316],[37.147352,55.98067],[37.148734,55.976992],[37.148774,55.970267],[37.14638,55.96997],[37.145597,55.966043],[37.148303,55.965604],[37.146611,55.963719],[37.149233,55.963042],[37.151155,55.961878],[37.15676,55.962139],[37.161271,55.961797],[37.161899,55.960101],[37.164037,55.958971],[37.16915,55.959248],[37.168642,55.960702],[37.17147,55.96068],[37.173804,55.959347],[37.172492,55.958474],[37.172977,55.957781],[37.175284,55.957511],[37.178003,55.958685],[37.182716,55.958247],[37.184397,55.957405],[37.183335,55.955633],[37.183217,55.954262],[37.186404,55.953089],[37.187531,55.955447],[37.188825,55.956114],[37.202851,55.953217],[37.202917,55.951771],[37.201529,55.949413],[37.202348,55.948598],[37.204878,55.948198],[37.208671,55.948809],[37.210901,55.948141],[37.212524,55.948644],[37.216507,55.948724],[37.217942,55.948206],[37.219908,55.95023],[37.218445,55.951466],[37.219285,55.953075],[37.220793,55.954029],[37.218556,55.955206],[37.219388,55.957118],[37.217245,55.957907],[37.215336,55.956323],[37.212963,55.955835],[37.210178,55.957372],[37.209329,55.960172],[37.207299,55.961447],[37.205811,55.963213],[37.20928,55.96442],[37.211566,55.967151],[37.207675,55.968722],[37.208529,55.970097],[37.2124,55.969244],[37.211303,55.970456],[37.211775,55.97324],[37.21284,55.976596],[37.215558,55.976683],[37.217001,55.975994],[37.218774,55.977241],[37.217458,55.978365],[37.218912,55.98036],[37.220515,55.981306],[37.223305,55.981749],[37.224823,55.981264],[37.225417,55.98029],[37.227204,55.979816],[37.230172,55.980243],[37.230959,55.97909],[37.233349,55.978501],[37.235211,55.979651],[37.236753,55.979095],[37.239608,55.97885],[37.242028,55.979274],[37.24362,55.977788],[37.243696,55.976698],[37.246497,55.975739],[37.25327,55.970414],[37.252651,55.968064],[37.257015,55.967688],[37.260036,55.967909],[37.262262,55.966877],[37.26755,55.967592],[37.268137,55.968213],[37.261292,55.968073],[37.261461,55.971425],[37.263798,55.972711],[37.266438,55.979466],[37.266163,55.981144],[37.267743,55.981934],[37.265174,55.983038],[37.265107,55.985884],[37.263014,55.988541]]]},"properties":{"ref":"ЗелАО","name":"Зеленоградский административный округ"}},
{"type":"Feature","geometry":{"type":"Polygon","coordinates":[[[37.651542,55.78936],[37.646056,55.790937],[37.640486,55.794613],[37.635,55.79717],[37.634448,55.794612],[37.634638,55.791892],[37.632431,55.791863],[37.627959,55.792508],[37.61631,55.793116],[37.616798,55.786824],[37.615326,55.783691],[37.613235,55.783426],[37.612333,55.782552],[37.606751,55.784409],[37.60468,55.785289],[37.60172,55.785169],[37.60064,55.787802],[37.599296,55.792482],[37.59589,55.792226],[37.589165,55.792421],[37.5878,55.792637],[37.588633,55.792057],[37.586841,55.785239],[37.585444,55.781015],[37.584793,55.779866],[37.581096,55.777432],[37.5781,55.776148],[37.575233,55.775521],[37.57108,55.775426],[37.549606,55.773218],[37.544434,55.772989],[37.541863,55.772406],[37.538963,55.771129],[37.536633,55.769065],[37.536061,55.766104],[37.534171,55.76515],[37.532202,55.763416],[37.524285,55.759846],[37.521944,55.761509],[37.51393,55.758422],[37.516299,55.756833],[37.518144,55.753211],[37.52205,55.747583],[37.525569,55.745337],[37.527972,55.744612],[37.532404,55.744396],[37.53735,55.744777],[37.540375,55.745458],[37.54355,55.746521],[37.554535,55.751436],[37.560178,55.753078],[37.564021,55.753597],[37.567883,55.753356],[37.570802,55.752728],[37.573033,55.751472],[37.574492,55.748864],[37.574449,55.746327],[37.573891,55.744709],[37.568327,55.738553],[37.56575,55.736401],[37.563633,55.735095],[37.559063,55.733069],[37.553035,55.729947],[37.544903,55.727056],[37.541864,55.72404],[37.541182,55.722056],[37.541081,55.720125],[37.541885,55.717595],[37.543331,55.715617],[37.545942,55.713687],[37.548516,55.712263],[37.552897,55.710973],[37.556873,55.710343],[37.559232,55.71028],[37.565401,55.710757],[37.56961,55.711617],[37.574928,55.713118],[37.577608,55.714206],[37.58214,55.710993],[37.585594,55.711091],[37.588336,55.713096],[37.587938,55.713953],[37.592671,55.716871],[37.590795,55.717873],[37.592565,55.719146],[37.594084,55.718325],[37.596855,55.72013],[37.598128,55.719847],[37.60031,55.721301],[37.609347,55.719521],[37.610096,55.721427],[37.614169,55.721053],[37.615577,55.720083],[37.622537,55.720928],[37.627893,55.721365],[37.633062,55.722565],[37.635802,55.72202],[37.636671,55.723518],[37.640084,55.72288],[37.642042,55.722204],[37.643742,55.722404],[37.644943,55.728077],[37.645995,55.729465],[37.652286,55.728066],[37.654211,55.728821],[37.656718,55.726372],[37.663127,55.726758],[37.66069,55.730703],[37.665811,55.731635],[37.667464,55.730864],[37.670581,55.725826],[37.677734,55.727355],[37.678918,55.728265],[37.681571,55.728472],[37.68406,55.730031],[37.685838,55.730113],[37.685373,55.732884],[37.686898,55.732447],[37.692158,55.72954],[37.6937,55.729303],[37.699487,55.736743],[37.69708,55.740791],[37.695284,55.74232],[37.69234,55.743869],[37.684874,55.747308],[37.679815,55.748932],[37.673106,55.75005],[37.670531,55.750749],[37.67255,55.752388],[37.673047,55.753694],[37.670912,55.757428],[37.670773,55.758378],[37.673912,55.75937],[37.679468,55.759058],[37.682588,55.759536],[37.684159,55.760274],[37.685839,55.762045],[37.685845,55.763984],[37.68904,55.767774],[37.692199,55.76949],[37.697242,55.766827],[37.702519,55.770029],[37.70432,55.770629],[37.71353,55.77526],[37.710931,55.778001],[37.707742,55.780161],[37.70525,55.780994],[37.701244,55.781851],[37.69636,55.782047],[37.688267,55.781899],[37.685813,55.782575],[37.674071,55.784891],[37.667289,55.78612],[37.651816,55.789098],[37.651542,55.78936]]]},"properties":{"ref":"ЦАО","name":"Центральный административный округ"}},
{"type":"Feature","geometry":{"type":"Polygon","coordinates":[[[37.578446,55.52168],[37.577127,55.517203],[37.567692,55.516684],[37.566179,55.517081],[37.566875,55.520291],[37.56536,55.520437],[37.564203,55.524045],[37.562324,55.526277],[37.55938,55.528142],[37.556466,55.529187],[37.552483,55.529955],[37.549271,55.530078],[37.543658,55.529362],[37.540296,55.528168],[37.537967,55.526939],[37.536031,55.525322],[37.534544,55.522819],[37.534419,55.520075],[37.535123,55.517962],[37.532651,55.51876],[37.529579,55.520545],[37.527498,55.521193],[37.52281,55.521634],[37.520124,55.522484],[37.520193,55.523902],[37.519218,55.525466],[37.513256,55.526396],[37.510454,55.526482],[37.506845,55.527086],[37.504496,55.52641],[37.502282,55.527008],[37.50192,55.527684],[37.499169,55.526755],[37.495001,55.527607],[37.494018,55.528441],[37.490295,55.529331],[37.486434,55.529786],[37.483115,55.528605],[37.482939,55.527159],[37.480136,55.526206],[37.477389,55.526156],[37.47415,55.527348],[37.47096,55.529851],[37.47019,55.534052],[37.472681,55.534911],[37.475709,55.535387],[37.475517,55.537295],[37.486175,55.539793],[37.491066,55.539532],[37.493449,55.539646],[37.507768,55.542945],[37.511115,55.544986],[37.514496,55.548505],[37.518187,55.550323],[37.528579,55.554865],[37.529188,55.555246],[37.536508,55.553672],[37.544878,55.55202],[37.548823,55.552626],[37.549466,55.554131],[37.552147,55.554869],[37.552969,55.556227],[37.554799,55.561478],[37.552012,55.561846],[37.550354,55.562929],[37.552507,55.563652],[37.553449,55.564923],[37.553495,55.567625],[37.547885,55.568923],[37.548878,55.569938],[37.546116,55.569939],[37.543679,55.570753],[37.540686,55.571127],[37.536911,55.573152],[37.539542,55.573263],[37.539947,55.576043],[37.539296,55.57672],[37.536846,55.577289],[37.538651,55.57956],[37.541023,55.579232],[37.542933,55.578436],[37.545742,55.578357],[37.551024,55.580279],[37.549627,55.581436],[37.549081,55.582988],[37.546232,55.584129],[37.545671,55.585583],[37.547266,55.586663],[37.530424,55.590696],[37.528802,55.58947],[37.526287,55.59162],[37.51809,55.593648],[37.511879,55.595596],[37.506553,55.598249],[37.502183,55.601608],[37.494098,55.608574],[37.492747,55.608772],[37.490946,55.610174],[37.487842,55.60839],[37.48912,55.610722],[37.488895,55.613276],[37.481533,55.619308],[37.467492,55.631362],[37.465974,55.633139],[37.464667,55.633757],[37.460782,55.637064],[37.458153,55.637376],[37.455719,55.637049],[37.455434,55.637223],[37.448574,55.634244],[37.44174,55.632182],[37.43114,55.629423],[37.418492,55.626234],[37.402007,55.621813],[37.38809,55.618201],[37.374229,55.614696],[37.373983,55.616056],[37.372289,55.620327],[37.370954,55.622778],[37.368685,55.624894],[37.363892,55.627932],[37.359871,55.629725],[37.356117,55.630576],[37.343783,55.632428],[37.34212,55.633788],[37.33855,55.635488],[37.336056,55.635179],[37.334406,55.63848],[37.33244,55.639548],[37.329818,55.639874],[37.331703,55.644527],[37.332047,55.645938],[37.330897,55.647277],[37.332845,55.648368],[37.335004,55.650918],[37.33786,55.652824],[37.343057,55.654058],[37.341019,55.657135],[37.335242,55.658537],[37.33201,55.659675],[37.336882,55.661544],[37.337528,55.662536],[37.334474,55.663537],[37.332414,55.663802],[37.328597,55.663177],[37.326641,55.663424],[37.325972,55.66425],[37.321168,55.664031],[37.319523,55.664281],[37.319153,55.661603],[37.32089,55.661034],[37.324046,55.661005],[37.322908,55.65089],[37.322064,55.651107],[37.311538,55.651194],[37.312791,55.649835],[37.312103,55.647261],[37.311203,55.646572],[37.305683,55.646307],[37.29027,55.64849],[37.290159,55.651942],[37.292624,55.652075],[37.292921,55.654081],[37.290921,55.655349],[37.288586,55.654889],[37.290096,55.651944],[37.290214,55.648494],[37.282813,55.649537],[37.277389,55.649435],[37.275378,55.650122],[37.271414,55.650525],[37.271491,55.651507],[37.266255,55.650386],[37.265688,55.649489],[37.263353,55.650043],[37.257352,55.649298],[37.253273,55.647991],[37.248894,55.645637],[37.24082,55.643731],[37.240615,55.641864],[37.238845,55.64209],[37.237192,55.640173],[37.235135,55.638704],[37.235969,55.637793],[37.236358,55.635984],[37.23939,55.635326],[37.24201,55.63284],[37.24011,55.632527],[37.235249,55.628677],[37.237601,55.627527],[37.237439,55.626491],[37.235783,55.624865],[37.23202,55.625403],[37.229205,55.624517],[37.228609,55.623784],[37.225635,55.62323],[37.229349,55.621363],[37.229013,55.620201],[37.227308,55.619641],[37.224791,55.621514],[37.2222,55.620488],[37.22019,55.62158],[37.216672,55.621949],[37.214556,55.622759],[37.211273,55.620105],[37.20684,55.622902],[37.202892,55.622128],[37.191849,55.620408],[37.188649,55.620173],[37.185474,55.618785],[37.18677,55.612726],[37.182247,55.612898],[37.181428,55.610912],[37.179612,55.609711],[37.17739,55.607262],[37.174717,55.60651],[37.172043,55.605228],[37.164328,55.60553],[37.160157,55.604244],[37.151797,55.604223],[37.147166,55.605753],[37.147166,55.60722],[37.146355,55.6091],[37.142486,55.609161],[37.140334,55.608109],[37.132659,55.605578],[37.134027,55.604047],[37.133144,55.60336],[37.134523,55.602189],[37.134422,55.600657],[37.132427,55.599186],[37.127159,55.598787],[37.12396,55.598961],[37.119697,55.600762],[37.118607,55.601714],[37.117747,55.60445],[37.116462,55.605636],[37.109069,55.603729],[37.108139,55.603761],[37.10221,55.602487],[37.095727,55.600114],[37.099141,55.596129],[37.091995,55.596184],[37.094886,55.592655],[37.093754,55.592155],[37.087943,55.590697],[37.087353,55.590355],[37.096495,55.577403],[37.110489,55.567989],[37.114693,55.565551],[37.117981,55.560728],[37.122874,55.553114],[37.12547,55.549963],[37.115177,55.547446],[37.11356,55.538946],[37.122508,55.538366],[37.122165,55.535145],[37.120519,55.53293],[37.119922,55.531409],[37.117979,55.530384],[37.115906,55.529999],[37.117422,55.527929],[37.116921,55.527239],[37.118855,55.523517],[37.119949,55.519131],[37.117394,55.518868],[37.118511,55.517621],[37.118631,55.513137],[37.118983,55.512983],[37.128017,55.513011],[37.12997,55.513388],[37.130837,55.512658],[37.136395,55.513026],[37.136086,55.51571],[37.138467,55.514881],[37.136738,55.504018],[37.136197,55.500022],[37.132427,55.499428],[37.13162,55.49846],[37.129711,55.498688],[37.128926,55.497968],[37.125581,55.497232],[37.12396,55.496136],[37.12659,55.4952],[37.123881,55.492745],[37.124181,55.491553],[37.128697,55.488544],[37.126898,55.487449],[37.13207,55.484376],[37.133424,55.484198],[37.135602,55.482645],[37.138429,55.482398],[37.142064,55.482401],[37.142968,55.480966],[37.14706,55.481748],[37.148559,55.479794],[37.152505,55.480565],[37.184026,55.48347],[37.195667,55.488472],[37.201532,55.492948],[37.208727,55.493548],[37.226862,55.495561],[37.243444,55.49726],[37.244044,55.497805],[37.246615,55.49781],[37.248493,55.499812],[37.249709,55.501815],[37.251133,55.502952],[37.25395,55.504258],[37.255651,55.503424],[37.261198,55.504576],[37.265975,55.505181],[37.267936,55.506174],[37.269167,55.505698],[37.270563,55.506641],[37.269847,55.507446],[37.270101,55.508985],[37.272458,55.510875],[37.272429,55.515415],[37.273414,55.517554],[37.270396,55.519089],[37.27166,55.522177],[37.273928,55.520932],[37.284034,55.525657],[37.293497,55.529095],[37.299732,55.530191],[37.298089,55.539324],[37.304514,55.542447],[37.311304,55.543729],[37.31121,55.54265],[37.312642,55.541575],[37.313656,55.539121],[37.318007,55.539431],[37.318919,55.538444],[37.323687,55.538599],[37.327563,55.538492],[37.328744,55.539913],[37.330645,55.539384],[37.333312,55.539637],[37.336065,55.540638],[37.339843,55.543133],[37.342031,55.544871],[37.342353,55.546062],[37.34356,55.547045],[37.347498,55.547372],[37.349181,55.54707],[37.351805,55.547384],[37.352395,55.54907],[37.353622,55.550478],[37.356724,55.548752],[37.357864,55.549485],[37.364874,55.547626],[37.365726,55.548495],[37.368728,55.548936],[37.369755,55.551117],[37.368051,55.551567],[37.36756,55.553814],[37.367958,55.555634],[37.376466,55.561484],[37.378766,55.561723],[37.384506,55.560297],[37.38727,55.558943],[37.389037,55.558826],[37.388502,55.557549],[37.394058,55.555663],[37.392208,55.553635],[37.400746,55.551618],[37.408026,55.549571],[37.407164,55.548411],[37.412242,55.544478],[37.398811,55.53901],[37.396802,55.53831],[37.393438,55.536334],[37.390652,55.532954],[37.390036,55.531363],[37.389746,55.528493],[37.394021,55.526673],[37.3965,55.526576],[37.396843,55.520585],[37.398806,55.519768],[37.401189,55.521128],[37.404107,55.521079],[37.407111,55.519296],[37.407197,55.518441],[37.405051,55.516827],[37.406725,55.515943],[37.4113,55.515953],[37.412604,55.51293],[37.413506,55.512395],[37.416858,55.512407],[37.41666,55.511386],[37.41365,55.511646],[37.408869,55.512745],[37.407735,55.513895],[37.405313,55.510063],[37.409845,55.50846],[37.409084,55.504794],[37.404915,55.501659],[37.408235,55.500575],[37.413651,55.501943],[37.417806,55.501125],[37.415153,55.504801],[37.41561,55.505891],[37.41782,55.506703],[37.420481,55.506422],[37.421532,55.504787],[37.424307,55.504152],[37.42887,55.504282],[37.429231,55.505695],[37.432817,55.505683],[37.432088,55.504045],[37.432548,55.502381],[37.434836,55.501056],[37.437978,55.500746],[37.439108,55.502116],[37.443475,55.500269],[37.44702,55.499442],[37.448885,55.497924],[37.449477,55.496126],[37.451589,55.495712],[37.454361,55.496286],[37.455365,55.495455],[37.45426,55.493934],[37.448813,55.489886],[37.445799,55.49092],[37.445451,55.488764],[37.443968,55.488005],[37.447387,55.487104],[37.445841,55.483649],[37.444638,55.482118],[37.44647,55.48208],[37.448159,55.480217],[37.449675,55.480124],[37.447613,55.475107],[37.45205,55.472555],[37.456412,55.472873],[37.458108,55.471311],[37.459555,55.471254],[37.460078,55.470209],[37.462203,55.469978],[37.462952,55.470889],[37.464672,55.470857],[37.464218,55.468447],[37.458514,55.467914],[37.457902,55.465684],[37.465322,55.464833],[37.470095,55.462273],[37.474892,55.461132],[37.476752,55.461701],[37.478047,55.460629],[37.48421,55.458303],[37.484828,55.458269],[37.489523,55.460833],[37.495351,55.459763],[37.496715,55.45914],[37.496252,55.458098],[37.492527,55.456595],[37.492329,55.455689],[37.496166,55.45236],[37.498655,55.450647],[37.498157,55.44981],[37.495462,55.449075],[37.486424,55.447828],[37.487209,55.446569],[37.488966,55.445072],[37.491054,55.444041],[37.495528,55.443055],[37.495379,55.442272],[37.499488,55.441373],[37.503041,55.437886],[37.504572,55.437734],[37.507387,55.436688],[37.513481,55.435923],[37.518485,55.435972],[37.529394,55.435845],[37.535265,55.436279],[37.538392,55.437486],[37.536636,55.439225],[37.535967,55.442255],[37.534771,55.444951],[37.531521,55.446907],[37.53195,55.450965],[37.531606,55.45175],[37.532764,55.453685],[37.536878,55.453461],[37.536819,55.454776],[37.542553,55.456723],[37.544316,55.457863],[37.547939,55.457138],[37.547861,55.45985],[37.54592,55.459719],[37.54757,55.461647],[37.545909,55.461566],[37.547094,55.464585],[37.545602,55.46485],[37.54475,55.472646],[37.555411,55.472986],[37.560845,55.473387],[37.56176,55.47479],[37.56239,55.47802],[37.563457,55.481502],[37.564109,55.482498],[37.565485,55.487418],[37.567455,55.487662],[37.578667,55.486692],[37.57778,55.483765],[37.579801,55.483678],[37.583456,55.486291],[37.587028,55.486722],[37.583712,55.487675],[37.585965,55.489054],[37.583206,55.490638],[37.584503,55.491196],[37.581891,55.492018],[37.583357,55.493577],[37.595084,55.488728],[37.597136,55.489349],[37.600389,55.488858],[37.601931,55.489283],[37.604679,55.49167],[37.605884,55.490783],[37.606492,55.488299],[37.611354,55.489635],[37.611025,55.491407],[37.609617,55.491134],[37.607395,55.491815],[37.607928,55.492787],[37.610417,55.493241],[37.609684,55.496317],[37.609104,55.500877],[37.606403,55.501496],[37.605693,55.502351],[37.608929,55.502408],[37.608096,55.509844],[37.602116,55.510456],[37.604768,55.512504],[37.603814,55.513038],[37.600892,55.510925],[37.599268,55.512634],[37.598023,55.514707],[37.591828,55.512493],[37.589715,55.51401],[37.588698,55.515529],[37.585805,55.517129],[37.585523,55.517997],[37.578446,55.52168]]]},"properties":{"ref":"НАО","name":"Новомосковский административный округ"}},
{"type":"Feature","geometry":{"type":"MultiPolygon","coordinates":[[[[36.900752,55.314857],[36.90128,55.313961],[36.903505,55.312493],[36.907149,55.311114],[36.911065,55.31357],[36.912071,55.316745],[36.913647,55.317009],[36.917668,55.316363],[36.919556,55.318733],[36.922806,55.323941],[36.922406,55.324754],[36.913754,55.325895],[36.91384,55.326592],[36.915847,55.330326],[36.910332,55.331303],[36.909673,55.329799],[36.908443,55.329893],[36.909117,55.32684],[36.910121,55.32617],[36.909091,55.31992],[36.906173,55.316745],[36.903941,55.317234],[36.903255,55.31611],[36.900752,55.314857]]],[[[37.444638,55.482118],[37.445841,55.483649],[37.447387,55.487104],[37.443968,55.488005],[37.445451,55.488764],[37.445799,55.49092],[37.448813,55.489886],[37.45426,55.493934],[37.455365,55.495455],[37.454361,55.496286],[37.451589,55.495712],[37.449477,55.496126],[37.448885,55.497924],[37.44702,55.499442],[37.443475,55.500269],[37.439108,55.502116],[37.437978,55.500746],[37.434836,55.501056],[37.432548,55.502381],[37.432088,55.504045],[37.432817,55.505683],[37.429231,55.505695],[37.42887,55.504282],[37.424307,55.504152],[37.421532,55.504787],[37.420481,55.506422],[37.41782,55.506703],[37.41561,55.505891],[37.415153,55.504801],[37.417806,55.501125],[37.413651,55.501943],[37.408235,55.500575],[37.404915,55.501659],[37.409084,55.504794],[37.409845,55.50846],[37.405313,55.510063],[37.407735,55.513895],[37.408869,55.512745],[37.41365,55.511646],[37.41666,55.511386],[37.416858,55.512407],[37.413506,55.512395],[37.412604,55.51293],[37.4113,55.515953],[37.406725,55.515943],[37.405051,55.516827],[37.407197,55.518441],[37.407111,55.519296],[37.404107,55.521079],[37.401189,55.521128],[37.398806,55.519768],[37.396843,55.520585],[37.3965,55.526576],[37.394021,55.526673],[37.389746,55.528493],[37.390036,55.531363],[37.390652,55.532954],[37.393438,55.536334],[37.396802,55.53831],[37.398811,55.53901],[37.412242,55.544478],[37.407164,55.548411],[37.408026,55.549571],[37.400746,55.551618],[37.392208,55.553635],[37.394058,55.555663],[37.388502,55.557549],[37.389037,55.558826],[37.38727,55.558943],[37.384506,55.560297],[37.378766,55.561723],[37.376466,55.561484],[37.367958,55.555634],[37.36756,55.553814],[37.368051,55.551567],[37.369755,55.551117],[37.368728,55.548936],[37.365726,55.548495],[37.364874,55.547626],[37.357864,55.549485],[37.356724,55.548752],[37.353622,55.550478],[37.352395,55.54907],[37.351805,55.547384],[37.349181,55.54707],[37.347498,55.547372],[37.34356,55.547045],[37.342353,55.546062],[37.342031,55.544871],[37.339843,55.543133],[37.336065,55.540638],[37.333312,55.539637],[37.330645,55.539384],[37.328744,55.539913],[37.327563,55.538492],[37.323687,55.538599],[37.318919,55.538444],[37.318007,55.539431],[37.313656,55.539121],[37.312642,55.541575],[37.31121,55.54265],[37.311304,55.543729],[37.304514,55.542447],[37.298089,55.539324],[37.299732,55.530191],[37.293497,55.529095],[37.284034,55.525657],[37.273928,55.520932],[37.27166,55.522177],[37.270396,55.519089],[37.273414,55.517554],[37.272429,55.515415],[37.272458,55.510875],[37.270101,55.508985],[37.269847,55.507446],[37.270563,55.506641],[37.269167,55.505698],[37.267936,55.506174],[37.265975,55.505181],[37.261198,55.504576],[37.255651,55.503424],[37.25395,55.504258],[37.251133,55.502952],[37.249709,55.501815],[37.248493,55.499812],[37.246615,55.49781],[37.244044,55.497805],[37.243444,55.49726],[37.226862,55.495561],[37.208727,55.493548],[37.201532,55.492948],[37.195667,55.488472],[37.184026,55.48347],[37.152505,55.480565],[37.148559,55.479794],[37.14706,55.481748],[37.142968,55.480966],[37.142064,55.482401],[37.138429,55.482398],[37.136055,55.482096],[37.138993,55.475088],[37.139191,55.473342],[37.131928,55.472445],[37.112629,55.469838],[37.112671,55.468904],[37.106518,55.469551],[37.093361,55.470404],[37.09228,55.464917],[37.095407,55.463119],[37.120262,55.452394],[37.132857,55.447007],[37.1418,55.443081],[37.150094,55.43896],[37.148329,55.438124],[37.141398,55.442653],[37.135827,55.440637],[37.137106,55.439602],[37.135738,55.438162],[37.133995,55.443159],[37.130557,55.441568],[37.124408,55.441954],[37.121072,55.440602],[37.118207,55.439884],[37.119516,55.439197],[37.117006,55.438057],[37.11547,55.438243],[37.111395,55.4398],[37.112566,55.441292],[37.110786,55.443165],[37.10794,55.445067],[37.110531,55.44705],[37.110774,55.448399],[37.099812,55.44571],[37.100764,55.445123],[37.097078,55.442694],[37.096045,55.443277],[37.092916,55.442067],[37.089283,55.441232],[37.087268,55.446272],[37.082522,55.445492],[37.080618,55.446685],[37.081423,55.448244],[37.0786,55.450042],[37.080514,55.450744],[37.080325,55.452699],[37.07679,55.453568],[37.072652,55.453679],[37.058612,55.454691],[37.060613,55.46266],[37.044478,55.463663],[37.036819,55.464061],[37.03628,55.462498],[37.035577,55.458441],[37.032128,55.455957],[37.020071,55.456786],[37.019234,55.445129],[37.006309,55.44617],[37.004642,55.447154],[37.003471,55.449597],[37.005573,55.45052],[37.002084,55.452596],[36.999775,55.452502],[36.998056,55.453782],[36.997598,55.455201],[36.996325,55.456447],[36.9944,55.456101],[36.993315,55.456652],[36.994017,55.458318],[36.989596,55.459224],[36.989287,55.456851],[36.98401,55.457787],[36.982959,55.454873],[36.973446,55.455461],[36.975721,55.474755],[36.976763,55.48503],[36.977791,55.493742],[36.963892,55.494564],[36.962932,55.494363],[36.954251,55.4951],[36.935058,55.496155],[36.938066,55.499002],[36.93691,55.499481],[36.935228,55.505233],[36.937968,55.507008],[36.936019,55.509022],[36.939271,55.513148],[36.941982,55.515329],[36.940683,55.51636],[36.936733,55.516114],[36.93512,55.516574],[36.933594,55.515932],[36.93561,55.515013],[36.919754,55.515446],[36.919475,55.505845],[36.86944,55.506501],[36.856502,55.506878],[36.844517,55.507069],[36.827875,55.507513],[36.827976,55.508424],[36.81624,55.508351],[36.816236,55.495281],[36.816115,55.484435],[36.815916,55.475138],[36.815208,55.465972],[36.804512,55.465508],[36.803569,55.451622],[36.803101,55.440833],[36.81136,55.436299],[36.812585,55.435107],[36.816411,55.429923],[36.819128,55.426764],[36.821924,55.429279],[36.826048,55.428162],[36.822602,55.424866],[36.823068,55.423675],[36.82654,55.421431],[36.842088,55.418699],[36.834296,55.413987],[36.84558,55.408741],[36.861875,55.401035],[36.848266,55.392082],[36.862865,55.384841],[36.855788,55.380503],[36.87216,55.372491],[36.901402,55.35838],[36.904085,55.357007],[36.902944,55.355697],[36.906983,55.354765],[36.91559,55.354083],[36.915142,55.352626],[36.916241,55.350797],[36.91949,55.349312],[36.936134,55.341257],[36.936193,55.338813],[36.936888,55.336592],[36.939171,55.336622],[36.940271,55.334271],[36.942218,55.332571],[36.946629,55.33067],[36.94473,55.329369],[36.960407,55.321905],[36.963683,55.324098],[36.977694,55.318645],[36.986442,55.315589],[36.987851,55.309177],[36.988387,55.308317],[36.987606,55.307327],[36.984987,55.302611],[36.987366,55.299957],[36.985525,55.29795],[36.983812,55.296971],[36.992308,55.292655],[36.993351,55.291039],[36.997741,55.291558],[36.99834,55.290279],[37.002567,55.289009],[37.012663,55.289893],[37.021607,55.288792],[37.021409,55.284429],[37.025987,55.284375],[37.026037,55.283021],[36.999629,55.277894],[36.990038,55.276139],[36.986797,55.276332],[36.983412,55.268138],[36.980484,55.269067],[36.975067,55.266208],[36.969327,55.267213],[36.9678,55.267194],[36.966255,55.266331],[36.962702,55.267392],[36.961504,55.266766],[36.956974,55.265401],[36.952517,55.264836],[36.957102,55.260763],[36.953654,55.25909],[36.950563,55.258978],[36.949073,55.257235],[36.94901,55.254583],[36.947826,55.252743],[36.947765,55.249706],[36.952616,55.249273],[36.951432,55.245651],[36.943783,55.24751],[36.943443,55.244916],[36.941047,55.243905],[36.941047,55.242942],[36.939259,55.24285],[36.93724,55.241391],[36.941403,55.241694],[36.94678,55.241396],[36.949439,55.240237],[36.950132,55.238262],[36.948934,55.235642],[36.948856,55.234312],[36.94583,55.230723],[36.947115,55.2278],[36.949641,55.224696],[36.945896,55.222805],[36.948459,55.220311],[36.947071,55.218513],[36.95147,55.218212],[36.957259,55.216612],[36.960092,55.214984],[36.962275,55.214141],[36.962187,55.212571],[36.965032,55.21207],[36.962773,55.209604],[36.961636,55.208977],[36.966304,55.20535],[36.965866,55.204212],[36.967097,55.199737],[36.969057,55.19847],[36.973828,55.192027],[36.975029,55.191052],[36.97571,55.189543],[36.979766,55.186253],[36.981068,55.186116],[36.980992,55.184729],[36.981594,55.182285],[36.982612,55.180466],[36.984111,55.181279],[36.985881,55.180902],[36.990263,55.181691],[36.991471,55.18286],[36.993547,55.182797],[36.995846,55.181685],[36.997173,55.180142],[37.001208,55.181511],[37.003322,55.181422],[37.006901,55.180716],[37.008231,55.182832],[37.010388,55.183332],[37.016474,55.184019],[37.019714,55.18295],[37.016364,55.179838],[37.014219,55.1773],[37.015905,55.176519],[37.018094,55.177269],[37.018236,55.174231],[37.019262,55.172964],[37.01923,55.168954],[37.01982,55.167195],[37.01989,55.16112],[37.018547,55.160177],[37.015227,55.159999],[37.018106,55.157589],[37.020848,55.156065],[37.023227,55.1556],[37.027434,55.152613],[37.027937,55.150147],[37.032574,55.147703],[37.03784,55.146016],[37.039205,55.142522],[37.041524,55.14285],[37.045632,55.142175],[37.044816,55.143376],[37.064748,55.144277],[37.064394,55.147119],[37.11121,55.149187],[37.110583,55.154164],[37.14208,55.155676],[37.140835,55.162632],[37.140777,55.164378],[37.156318,55.164762],[37.157176,55.161745],[37.162063,55.164718],[37.166096,55.164381],[37.166662,55.165377],[37.169879,55.164339],[37.171339,55.165471],[37.171128,55.170368],[37.169806,55.171446],[37.170047,55.173786],[37.167388,55.180626],[37.168355,55.182838],[37.167281,55.185421],[37.173362,55.191614],[37.173409,55.193011],[37.174439,55.195044],[37.168877,55.194637],[37.167827,55.203273],[37.166668,55.211444],[37.167991,55.21161],[37.169608,55.214963],[37.169585,55.215765],[37.166274,55.216146],[37.164725,55.224856],[37.163361,55.231579],[37.171514,55.231347],[37.175846,55.232556],[37.178098,55.234288],[37.18487,55.236885],[37.189001,55.236472],[37.19394,55.23481],[37.199844,55.237715],[37.204841,55.241627],[37.201766,55.243163],[37.201184,55.244362],[37.203955,55.246887],[37.20396,55.247651],[37.205944,55.249469],[37.20784,55.249103],[37.209767,55.250799],[37.212675,55.251616],[37.214206,55.252691],[37.216231,55.252232],[37.219005,55.25311],[37.222981,55.251991],[37.228812,55.249552],[37.231146,55.249107],[37.23485,55.247627],[37.233157,55.245576],[37.235532,55.244392],[37.234783,55.242765],[37.245516,55.239265],[37.247456,55.24193],[37.249979,55.240987],[37.251273,55.239997],[37.254311,55.240327],[37.263816,55.240141],[37.269605,55.240722],[37.274493,55.244612],[37.276865,55.251582],[37.267885,55.256465],[37.271561,55.258824],[37.285123,55.251762],[37.291024,55.248585],[37.29446,55.24238],[37.302983,55.242901],[37.306992,55.240122],[37.305211,55.238181],[37.305047,55.234272],[37.306662,55.231698],[37.304333,55.231841],[37.299921,55.230608],[37.300081,55.22723],[37.300847,55.224526],[37.30378,55.223946],[37.309277,55.222237],[37.316968,55.220716],[37.31782,55.222722],[37.316663,55.228285],[37.326811,55.229014],[37.333392,55.228672],[37.334912,55.23698],[37.33441,55.238042],[37.346566,55.238482],[37.353243,55.238853],[37.356355,55.239608],[37.36313,55.241586],[37.376226,55.244757],[37.385121,55.246808],[37.40038,55.250092],[37.405315,55.250576],[37.406641,55.26084],[37.411629,55.27863],[37.410907,55.278741],[37.412834,55.282217],[37.414193,55.283615],[37.415446,55.286497],[37.415226,55.290026],[37.412018,55.290444],[37.409719,55.290173],[37.40857,55.291909],[37.412161,55.292792],[37.41323,55.293589],[37.410898,55.296258],[37.4091,55.296666],[37.406422,55.296227],[37.404908,55.296789],[37.402864,55.296526],[37.403007,55.297766],[37.404095,55.298454],[37.404074,55.300486],[37.40271,55.300578],[37.39945,55.301691],[37.397522,55.301331],[37.392513,55.299522],[37.391504,55.301386],[37.389964,55.302541],[37.391431,55.304063],[37.393651,55.307878],[37.393178,55.309608],[37.391424,55.309585],[37.389872,55.312224],[37.38792,55.31217],[37.386267,55.314563],[37.384545,55.315432],[37.384597,55.316517],[37.389455,55.316283],[37.394408,55.315441],[37.396691,55.316038],[37.400344,55.314495],[37.401809,55.312976],[37.406978,55.311365],[37.409783,55.309415],[37.414647,55.311858],[37.422127,55.31152],[37.422337,55.312356],[37.427818,55.314727],[37.424914,55.317218],[37.424691,55.320631],[37.424104,55.321525],[37.424755,55.322492],[37.422913,55.323927],[37.420841,55.328921],[37.415328,55.33059],[37.41429,55.331838],[37.410728,55.332574],[37.405853,55.335008],[37.405205,55.336151],[37.409134,55.338429],[37.412712,55.340096],[37.413554,55.340811],[37.417288,55.341895],[37.419583,55.342042],[37.422863,55.343207],[37.422319,55.346369],[37.420918,55.349458],[37.419661,55.350623],[37.419933,55.351316],[37.441027,55.35195],[37.443088,55.352923],[37.427572,55.364652],[37.429947,55.365095],[37.431413,55.367148],[37.429332,55.368805],[37.433073,55.36944],[37.4342,55.370029],[37.4353,55.37279],[37.438234,55.374546],[37.440883,55.374066],[37.445128,55.375046],[37.445494,55.3774],[37.447108,55.381166],[37.448996,55.381598],[37.452571,55.380167],[37.453698,55.380333],[37.455632,55.377245],[37.455994,55.375305],[37.456815,55.373979],[37.460033,55.370238],[37.460958,55.369733],[37.462178,55.367675],[37.465469,55.369186],[37.467504,55.371291],[37.464488,55.37664],[37.46927,55.379818],[37.467053,55.384686],[37.463928,55.388229],[37.47054,55.390025],[37.468051,55.392404],[37.464447,55.39719],[37.463902,55.398655],[37.468518,55.399038],[37.46752,55.3997],[37.46131,55.399406],[37.460947,55.40157],[37.463384,55.402652],[37.462061,55.404868],[37.468959,55.406782],[37.466009,55.40837],[37.465588,55.409016],[37.467688,55.412045],[37.465808,55.412981],[37.459977,55.413314],[37.458272,55.412409],[37.456127,55.412295],[37.452382,55.413307],[37.450491,55.414795],[37.448052,55.41444],[37.443536,55.413182],[37.44256,55.414132],[37.440063,55.414214],[37.43775,55.413754],[37.436015,55.414586],[37.437936,55.417606],[37.439282,55.418589],[37.438837,55.420302],[37.435405,55.420764],[37.434899,55.419106],[37.433237,55.419173],[37.433567,55.421788],[37.432456,55.423293],[37.428585,55.424064],[37.426978,55.425361],[37.428923,55.42639],[37.433544,55.426792],[37.430294,55.429012],[37.425765,55.427362],[37.426521,55.432391],[37.386684,55.434433],[37.386523,55.438436],[37.387864,55.438649],[37.389668,55.437829],[37.391481,55.437753],[37.395527,55.44037],[37.40003,55.444393],[37.39803,55.445108],[37.39656,55.44321],[37.394818,55.442442],[37.390772,55.441942],[37.389388,55.442143],[37.390163,55.444124],[37.387714,55.44637],[37.378606,55.446336],[37.376678,55.445442],[37.373596,55.445399],[37.371384,55.447864],[37.372717,55.449916],[37.374543,55.449854],[37.375766,55.45133],[37.378669,55.45211],[37.384475,55.451296],[37.38658,55.452323],[37.387902,55.453572],[37.386834,55.454084],[37.386474,55.455925],[37.388768,55.4571],[37.394207,55.463164],[37.392496,55.464125],[37.391032,55.466674],[37.394573,55.469007],[37.399452,55.468489],[37.402785,55.4685],[37.400377,55.466989],[37.405076,55.465082],[37.407627,55.465085],[37.411257,55.462932],[37.412204,55.465628],[37.415716,55.466154],[37.419623,55.468701],[37.421082,55.468378],[37.424549,55.469847],[37.429091,55.469421],[37.429736,55.471774],[37.428686,55.473446],[37.426225,55.475893],[37.432232,55.476231],[37.434524,55.476839],[37.43883,55.478713],[37.439173,55.479488],[37.444638,55.482118]]]]},"properties":{"ref":"ТАО","name":"Троицкий административный округ"}}
]}